H1 CPF 01  gfz 2021 12 12 13  8462 tandemx   
H2 1003001  6202 36605    2021 12 12 12 59 42 2021 12 17 00 00 42   120 1 1  0 0 0
H9
10 0 59563  19422.000000  0    5769080.133   1420415.698   3477761.059
10 0 59563  19542.000000  0    6205774.415   1329971.237   2670822.046
10 0 59563  19662.000000  0    6532113.549   1209593.905   1816850.012
10 0 59563  19782.000000  0    6741907.532   1063374.722    930884.232
10 0 59563  19902.000000  0    6831101.751    895949.397     28529.142
10 0 59563  20022.000000  0    6797859.131    712377.897   -874328.846
10 0 59563  20142.000000  0    6642595.910    518014.893  -1761810.906
10 0 59563  20262.000000  0    6367971.732    318374.239  -2618332.487
10 0 59563  20382.000000  0    5978836.056    118991.531  -3428882.736
10 0 59563  20502.000000  0    5482131.658    -74711.693  -4179290.882
10 0 59563  20622.000000  0    4886757.225   -257558.793  -4856473.685
10 0 59563  20742.000000  0    4203394.612   -424740.378  -5448657.698
10 0 59563  20862.000000  0    3444307.342   -571925.984  -5945575.745
10 0 59563  20982.000000  0    2623112.655   -695363.539  -6338635.662
10 0 59563  21102.000000  0    1754531.903   -791963.242  -6621057.030
10 0 59563  21222.000000  0     854126.896   -859365.637  -6787976.676
10 0 59563  21342.000000  0     -61975.973   -895992.924  -6836524.376
10 0 59563  21462.000000  0    -977369.156   -901081.623  -6765865.885
10 0 59563  21582.000000  0   -1875650.513   -874697.625  -6577216.098
10 0 59563  21702.000000  0   -2740711.020   -817732.409  -6273819.875
10 0 59563  21822.000000  0   -3557016.589   -731881.200  -5860901.253
10 0 59563  21942.000000  0   -4309883.622   -619603.270  -5345584.612
10 0 59563  22062.000000  0   -4985744.846   -484064.382  -4736782.723
10 0 59563  22182.000000  0   -5572397.922   -329062.874  -4045054.118
10 0 59563  22302.000000  0   -6059234.962   -158940.455  -3282431.046
10 0 59563  22422.000000  0   -6437445.942     21521.717  -2462217.291
10 0 59563  22542.000000  0   -6700191.283    207218.384  -1598760.768
10 0 59563  22662.000000  0   -6842739.464    392845.858   -707202.704
10 0 59563  22782.000000  0   -6862563.497    573033.302    196793.422
10 0 59563  22902.000000  0   -6759391.953    742477.479   1097323.515
10 0 59563  23022.000000  0   -6535217.196    896077.060   1978530.068
10 0 59563  23142.000000  0   -6194257.949   1029063.036   2824890.899
10 0 59563  23262.000000  0   -5742875.912   1137121.864   3621501.527
10 0 59563  23382.000000  0   -5189449.000   1216507.945   4354343.966
10 0 59563  23502.000000  0   -4544206.171   1264142.920   5010536.178
10 0 59563  23622.000000  0   -3819028.467   1277699.028   5578558.022
10 0 59563  23742.000000  0   -3027221.725   1255665.314   6048450.916
10 0 59563  23862.000000  0   -2183264.826   1197395.008   6411988.993
10 0 59563  23982.000000  0   -1302537.748   1103133.852   6662817.699
10 0 59563  24102.000000  0    -401037.239    974027.822   6796557.420
10 0 59563  24222.000000  0     504913.982    812110.910   6810874.413
10 0 59563  24342.000000  0    1398961.694    620272.945   6705518.751
10 0 59563  24462.000000  0    2265014.074    402208.435   6482328.516
10 0 59563  24582.000000  0    3087530.530    162346.643   6145200.633
10 0 59563  24702.000000  0    3851802.379    -94236.272   5700027.758
10 0 59563  24822.000000  0    4544219.141   -361921.593   5154600.572
10 0 59563  24942.000000  0    5152516.444   -634666.674   4518477.587
10 0 59563  25062.000000  0    5666001.084   -906136.171   3802822.807
10 0 59563  25182.000000  0    6075748.912  -1169843.249   3020213.481
10 0 59563  25302.000000  0    6374769.951  -1419297.432   2184418.921
10 0 59563  25422.000000  0    6558136.513  -1648154.952   1310155.380
10 0 59563  25542.000000  0    6623070.894  -1850368.976    412821.948
10 0 59563  25662.000000  0    6568990.883  -2020336.698   -491778.704
10 0 59563  25782.000000  0    6397509.358  -2153036.774  -1387728.167
10 0 59563  25902.000000  0    6112390.220  -2244155.622  -2259281.137
10 0 59563  26022.000000  0    5719460.436  -2290198.467  -3091149.459
10 0 59563  26142.000000  0    5226482.084  -2288582.432  -3868773.987
10 0 59563  26262.000000  0    4642989.364  -2237710.147  -4578579.724
10 0 59563  26382.000000  0    3980093.874  -2137022.481  -5208210.455
10 0 59563  26502.000000  0    3250262.335  -1987029.227  -5746737.202
10 0 59563  26622.000000  0    2467074.983  -1789317.289  -6184837.158
10 0 59563  26742.000000  0    1644970.417  -1546536.896  -6514944.810
10 0 59563  26862.000000  0     798977.938  -1262365.905  -6731372.307
10 0 59563  26982.000000  0     -55554.736   -941453.942  -6830396.745
10 0 59563  27102.000000  0    -903234.656   -589346.963  -6810316.756
10 0 59563  27222.000000  0   -1728894.217   -212393.510  -6671478.640
10 0 59563  27342.000000  0   -2517856.621    182367.217  -6416270.319
10 0 59563  27462.000000  0   -3256190.467    587332.669  -6049084.047
10 0 59563  27582.000000  0   -3930951.935    994478.789  -5576249.852
10 0 59563  27702.000000  0   -4530412.605   1395514.002  -5005937.233
10 0 59563  27822.000000  0   -5044267.514   1782043.970  -4348026.450
10 0 59563  27942.000000  0   -5463820.195   2145744.715  -3613947.679
10 0 59563  28062.000000  0   -5782138.961   2478538.338  -2816491.062
10 0 59563  28182.000000  0   -5994182.802   2772769.104  -1969590.036
10 0 59563  28302.000000  0   -6096892.315   3021375.767  -1088079.912
10 0 59563  28422.000000  0   -6089242.474   3218055.963   -187435.992
10 0 59563  28542.000000  0   -5972255.302   3357417.615    716504.055
10 0 59563  28662.000000  0   -5748970.031   3435112.862   1607827.548
10 0 59563  28782.000000  0   -5424371.915   3447951.858   2470835.835
10 0 59563  28902.000000  0   -5005282.115   3393992.751   3290329.071
10 0 59563  29022.000000  0   -4500211.878   3272605.717   4051881.268
10 0 59563  29142.000000  0   -3919183.621   3084509.039   4742099.047
10 0 59563  29262.000000  0   -3273525.533   2831777.231   5348857.862
10 0 59563  29382.000000  0   -2575644.057   2517822.306   5861514.480
10 0 59563  29502.000000  0   -1838778.486   2147347.089   6271090.000
10 0 59563  29622.000000  0   -1076744.266   1726272.231   6570421.434
10 0 59563  29742.000000  0    -303671.206   1261639.135   6754279.237
10 0 59563  29862.000000  0     466258.091    761490.395   6819453.158
10 0 59563  29982.000000  0    1219067.858    234730.158   6764804.627
10 0 59563  30102.000000  0    1941241.581   -309033.665   6591285.408
10 0 59563  30222.000000  0    2619963.880   -859664.028   6301922.946
10 0 59563  30342.000000  0    3243348.535  -1406682.856   5901771.626
10 0 59563  30462.000000  0    3800649.912  -1939469.959   5397830.212
10 0 59563  30582.000000  0    4282452.298  -2447469.416   4798924.520
10 0 59563  30702.000000  0    4680834.322  -2920399.527   4115559.124
10 0 59563  30822.000000  0    4989506.504  -3348463.599   3359737.929
10 0 59563  30942.000000  0    5203917.941  -3722555.282   2544754.245
10 0 59563  31062.000000  0    5321327.634  -4034453.388   1684954.599
10 0 59563  31182.000000  0    5340839.302  -4277002.698    795482.141
10 0 59563  31302.000000  0    5263399.630  -4444275.100   -107996.743
10 0 59563  31422.000000  0    5091759.156  -4531707.644  -1009576.686
10 0 59563  31542.000000  0    4830396.173  -4536212.677  -1893402.620
10 0 59563  31662.000000  0    4485405.945  -4456257.836  -2743956.744
10 0 59563  31782.000000  0    4064358.538  -4291914.048  -3546336.581
10 0 59563  31902.000000  0    3576129.488  -4044870.850  -4286518.816
10 0 59563  32022.000000  0    3030707.837  -3718418.896  -4951603.061
10 0 59563  32142.000000  0    2438986.369  -3317401.368  -5530031.338
10 0 59563  32262.000000  0    1812540.627  -2848136.139  -6011779.135
10 0 59563  32382.000000  0    1163401.981  -2318312.150  -6388518.791
10 0 59563  32502.000000  0     503826.649  -1736859.722  -6653753.967
10 0 59563  32622.000000  0    -153933.612  -1113797.409  -6802920.755
10 0 59563  32742.000000  0    -797854.333   -460060.147  -6833456.590
10 0 59563  32862.000000  0   -1416352.420    212688.973  -6744838.943
10 0 59563  32982.000000  0   -1998489.845    892261.542  -6538592.649
10 0 59563  33102.000000  0   -2534162.440   1566158.956  -6218266.395
10 0 59563  33222.000000  0   -3014272.084   2221796.514  -5789378.428
10 0 59563  33342.000000  0   -3430881.136   2846734.364  -5259332.305
10 0 59563  33462.000000  0   -3777346.856   3428912.398  -4637301.122
10 0 59563  33582.000000  0   -4048432.615   3956883.993  -3934079.133
10 0 59563  33702.000000  0   -4240391.513   4420043.688  -3161903.242
10 0 59563  33822.000000  0   -4351021.887   4808844.789  -2334247.876
10 0 59563  33942.000000  0   -4379694.161   5115001.109  -1465593.931
10 0 59563  34062.000000  0   -4327347.175   5331668.901   -571176.080
10 0 59563  34182.000000  0   -4196452.105   5453603.469    333289.468
10 0 59563  34302.000000  0   -3990944.452   5477283.664   1231887.522
10 0 59563  34422.000000  0   -3716126.908   5401004.386   2108793.427
10 0 59563  34542.000000  0   -3378543.490   5224930.193   2948562.306
10 0 59563  34662.000000  0   -2985827.759   4951110.485   3736408.720
10 0 59563  34782.000000  0   -2546532.020   4583457.496   4458471.644
10 0 59563  34902.000000  0   -2069940.681   4127687.076   5102061.267
10 0 59563  35022.000000  0   -1565872.792   3591223.465   5655882.154
10 0 59563  35142.000000  0   -1044477.708   2983070.829   6110228.557
10 0 59563  35262.000000  0    -516029.605   2313654.893   6457148.817
10 0 59563  35382.000000  0       9274.405   1594639.442   6690577.634
10 0 59563  35502.000000  0     521510.463    838720.228   6806437.203
10 0 59563  35622.000000  0    1011214.835     59399.423   6802703.138
10 0 59563  35742.000000  0    1469557.614   -729254.434   6679437.985
10 0 59563  35862.000000  0    1888501.486  -1512860.064   6438791.019
99
